LEO-SAT-1
1 40001U 25001A   25297.73276460  .00000000  00000-0  00000-0 0    17
2 40001  55.0000   0.0000 0000000   0.0000   0.0000 15.21936487    14
LEO-SAT-2
1 40002U 25001A   25297.73276460  .00000000  00000-0  00000-0 0    29
2 40002  55.0000   0.0000 0000000   0.0000   9.0000 15.21936487    14
LEO-SAT-3
1 40003U 25001A   25297.73276460  .00000000  00000-0  00000-0 0    31
2 40003  55.0000   0.0000 0000000   0.0000  18.0000 15.21936487    15
LEO-SAT-4
1 40004U 25001A   25297.73276460  .00000000  00000-0  00000-0 0    43
2 40004  55.0000   0.0000 0000000   0.0000  27.0000 15.21936487    16
LEO-SAT-5
1 40005U 25001A   25297.73276460  .00000000  00000-0  00000-0 0    55
2 40005  55.0000   0.0000 0000000   0.0000  36.0000 15.21936487    17
LEO-SAT-6
1 40006U 25001A   25297.73276460  .00000000  00000-0  00000-0 0    67
2 40006  55.0000   0.0000 0000000   0.0000  45.0000 15.21936487    18
LEO-SAT-7
1 40007U 25001A   25297.73276460  .00000000  00000-0  00000-0 0    79
2 40007  55.0000   0.0000 0000000   0.0000  54.0000 15.21936487    19
LEO-SAT-8
1 40008U 25001A   25297.73276460  .00000000  00000-0  00000-0 0    81
2 40008  55.0000   0.0000 0000000   0.0000  63.0000 15.21936487    10
LEO-SAT-9
1 40009U 25001A   25297.73276460  .00000000  00000-0  00000-0 0    93
2 40009  55.0000   0.0000 0000000   0.0000  72.0000 15.21936487    11
LEO-SAT-10
1 40010U 25001A   25297.73276460  .00000000  00000-0  00000-0 0   107
2 40010  55.0000   0.0000 0000000   0.0000  81.0000 15.21936487    13
LEO-SAT-11
1 40011U 25001A   25297.73276460  .00000000  00000-0  00000-0 0   119
2 40011  55.0000   0.0000 0000000   0.0000  90.0000 15.21936487    14
LEO-SAT-12
1 40012U 25001A   25297.73276460  .00000000  00000-0  00000-0 0   121
2 40012  55.0000   0.0000 0000000   0.0000  99.0000 15.21936487    14
LEO-SAT-13
1 40013U 25001A   25297.73276460  .00000000  00000-0  00000-0 0   133
2 40013  55.0000   0.0000 0000000   0.0000 108.0000 15.21936487    16
LEO-SAT-14
1 40014U 25001A   25297.73276460  .00000000  00000-0  00000-0 0   145
2 40014  55.0000   0.0000 0000000   0.0000 117.0000 15.21936487    17
LEO-SAT-15
1 40015U 25001A   25297.73276460  .00000000  00000-0  00000-0 0   157
2 40015  55.0000   0.0000 0000000   0.0000 126.0000 15.21936487    18
LEO-SAT-16
1 40016U 25001A   25297.73276460  .00000000  00000-0  00000-0 0   169
2 40016  55.0000   0.0000 0000000   0.0000 135.0000 15.21936487    19
LEO-SAT-17
1 40017U 25001A   25297.73276460  .00000000  00000-0  00000-0 0   171
2 40017  55.0000   0.0000 0000000   0.0000 144.0000 15.21936487    10
LEO-SAT-18
1 40018U 25001A   25297.73276460  .00000000  00000-0  00000-0 0   183
2 40018  55.0000   0.0000 0000000   0.0000 153.0000 15.21936487    11
LEO-SAT-19
1 40019U 25001A   25297.73276460  .00000000  00000-0  00000-0 0   195
2 40019  55.0000   0.0000 0000000   0.0000 162.0000 15.21936487    12
LEO-SAT-20
1 40020U 25001A   25297.73276460  .00000000  00000-0  00000-0 0   209
2 40020  55.0000   0.0000 0000000   0.0000 171.0000 15.21936487    14
LEO-SAT-21
1 40021U 25001A   25297.73276460  .00000000  00000-0  00000-0 0   211
2 40021  55.0000   0.0000 0000000   0.0000 180.0000 15.21936487    15
LEO-SAT-22
1 40022U 25001A   25297.73276460  .00000000  00000-0  00000-0 0   223
2 40022  55.0000   0.0000 0000000   0.0000 189.0000 15.21936487    15
LEO-SAT-23
1 40023U 25001A   25297.73276460  .00000000  00000-0  00000-0 0   235
2 40023  55.0000   0.0000 0000000   0.0000 198.0000 15.21936487    16
LEO-SAT-24
1 40024U 25001A   25297.73276460  .00000000  00000-0  00000-0 0   247
2 40024  55.0000   0.0000 0000000   0.0000 207.0000 15.21936487    18
LEO-SAT-25
1 40025U 25001A   25297.73276460  .00000000  00000-0  00000-0 0   259
2 40025  55.0000   0.0000 0000000   0.0000 216.0000 15.21936487    19
LEO-SAT-26
1 40026U 25001A   25297.73276460  .00000000  00000-0  00000-0 0   261
2 40026  55.0000   0.0000 0000000   0.0000 225.0000 15.21936487    10
LEO-SAT-27
1 40027U 25001A   25297.73276460  .00000000  00000-0  00000-0 0   273
2 40027  55.0000   0.0000 0000000   0.0000 234.0000 15.21936487    11
LEO-SAT-28
1 40028U 25001A   25297.73276460  .00000000  00000-0  00000-0 0   285
2 40028  55.0000   0.0000 0000000   0.0000 243.0000 15.21936487    12
LEO-SAT-29
1 40029U 25001A   25297.73276460  .00000000  00000-0  00000-0 0   297
2 40029  55.0000   0.0000 0000000   0.0000 252.0000 15.21936487    13
LEO-SAT-30
1 40030U 25001A   25297.73276460  .00000000  00000-0  00000-0 0   301
2 40030  55.0000   0.0000 0000000   0.0000 261.0000 15.21936487    15
LEO-SAT-31
1 40031U 25001A   25297.73276460  .00000000  00000-0  00000-0 0   313
2 40031  55.0000   0.0000 0000000   0.0000 270.0000 15.21936487    16
LEO-SAT-32
1 40032U 25001A   25297.73276460  .00000000  00000-0  00000-0 0   325
2 40032  55.0000   0.0000 0000000   0.0000 279.0000 15.21936487    16
LEO-SAT-33
1 40033U 25001A   25297.73276460  .00000000  00000-0  00000-0 0   337
2 40033  55.0000   0.0000 0000000   0.0000 288.0000 15.21936487    17
LEO-SAT-34
1 40034U 25001A   25297.73276460  .00000000  00000-0  00000-0 0   349
2 40034  55.0000   0.0000 0000000   0.0000 297.0000 15.21936487    18
LEO-SAT-35
1 40035U 25001A   25297.73276460  .00000000  00000-0  00000-0 0   351
2 40035  55.0000   0.0000 0000000   0.0000 306.0000 15.21936487    10
LEO-SAT-36
1 40036U 25001A   25297.73276460  .00000000  00000-0  00000-0 0   363
2 40036  55.0000   0.0000 0000000   0.0000 315.0000 15.21936487    11
LEO-SAT-37
1 40037U 25001A   25297.73276460  .00000000  00000-0  00000-0 0   375
2 40037  55.0000   0.0000 0000000   0.0000 324.0000 15.21936487    12
LEO-SAT-38
1 40038U 25001A   25297.73276460  .00000000  00000-0  00000-0 0   387
2 40038  55.0000   0.0000 0000000   0.0000 333.0000 15.21936487    13
LEO-SAT-39
1 40039U 25001A   25297.73276460  .00000000  00000-0  00000-0 0   399
2 40039  55.0000   0.0000 0000000   0.0000 342.0000 15.21936487    14
LEO-SAT-40
1 40040U 25001A   25297.73276460  .00000000  00000-0  00000-0 0   403
2 40040  55.0000   0.0000 0000000   0.0000 351.0000 15.21936487    16
